ONEWEB-0252             
1 48970U 21060D   26052.49237574 -.00000001  00000+0 -36606-4 0  9990
2 48970  87.8997 251.7931 0001349  88.0997 272.0288 13.16592896224438
ONEWEB-0253             
1 48971U 21060E   26052.55729696  .00000016  00000+0  75408-5 0  9997
2 48971  87.8999 251.7861 0001516  97.8010 262.3293 13.16595585224372
ONEWEB-0254             
1 48972U 21060F   26052.56679377 -.00000046  00000+0 -15416-3 0  9995
2 48972  87.9002 251.7782 0001697 104.9301 255.2018 13.16595412224379
ONEWEB-0255             
1 48973U 21060G   26052.60480357  .00000054  00000+0  10889-3 0  9995
2 48973  87.8993 251.7808 0001604 100.6333 259.4979 13.16595688224459
ONEWEB-0256             
1 48974U 21060H   26052.55491922  .00000052  00000+0  10340-3 0  9990
2 48974  87.8999 251.7977 0001503  87.4694 272.6609 13.16592313224418
ONEWEB-0257             
1 48975U 21060J   26052.51137911 -.00000032  00000+0 -11793-3 0  9995
2 48975  87.8996 251.7900 0001468  97.3282 262.8015 13.16595192224369
ONEWEB-0258             
1 48976U 21060K   26052.51296904 -.00000032  00000+0 -11726-3 0  9990
2 48976  87.8995 251.8014 0001668  92.3070 267.8252 13.16594751224377
ONEWEB-0259             
1 48977U 21060L   26052.50662819 -.00000092  00000+0 -27356-3 0  9994
2 48977  87.8997 251.8014 0001636  99.6119 260.5197 13.16595659224409
ONEWEB-0260             
1 48978U 21060M   26052.49792002 -.00000037  00000+0 -13041-3 0  9996
2 48978  87.8997 251.8092 0001240  83.2377 276.8895 13.16592916224387
ONEWEB-0261             
1 48979U 21060N   26052.46783594  .00000096  00000+0  21628-3 0  9993
2 48979  87.8987 251.8168 0001364 106.6433 253.4848 13.16595760224436
ONEWEB-0262             
1 48980U 21060P   26052.60004743  .00000007  00000+0 -15556-4 0  9990
2 48980  87.8996 251.7705 0001796 100.1132 260.0202 13.16594938224410
ONEWEB-0263             
1 48981U 21060Q   26052.55570520  .00000059  00000+0  12173-3 0  9993
2 48981  87.8998 251.7908 0001533 109.0153 251.1144 13.16595858224371
ONEWEB-0264             
1 48982U 21060R   26052.51692381 -.00000002  00000+0 -39774-4 0  9997
2 48982  87.8994 251.8027 0001312  95.1126 265.0155 13.16594986224378
ONEWEB-0266             
1 48984U 21060T   26052.61429596  .00000122  00000+0  28621-3 0  9995
2 48984  87.8999 251.7726 0001751  94.6257 265.5074 13.16595715224372
ONEWEB-0267             
1 48985U 21060U   26052.47337429  .00000093  00000+0  21014-3 0  9999
2 48985  87.8999 251.7974 0001425 100.5464 259.5827 13.16595786224369
ONEWEB-0268             
1 48986U 21060V   26052.51771563  .00000015  00000+0  54374-5 0  9997
2 48986  87.8997 251.7981 0001510  92.8771 267.2533 13.16594594224631
