[{"OBJECT_NAME":"ONEWEB-0252","OBJECT_ID":"2021-060D","EPOCH":"2026-02-21T11:49:01.263936","MEAN_MOTION":13.16592896,"ECCENTRICITY":0.00013497,"INCLINATION":87.8997,"RA_OF_ASC_NODE":251.7931,"ARG_OF_PERICENTER":88.0997,"MEAN_ANOMALY":272.0288,"EPHEMERIS_TYPE":0,"CLASSIFICATION_TYPE":"U","NORAD_CAT_ID":48970,"ELEMENT_SET_NO":999,"REV_AT_EPOCH":22443,"BSTAR":-3.6606411e-5,"MEAN_MOTION_DOT":-1.0e-8,"MEAN_MOTION_DDOT":0},{"OBJECT_NAME":"ONEWEB-0253","OBJECT_ID":"2021-060E","EPOCH":"2026-02-21T13:22:30.457344","MEAN_MOTION":13.16595585,"ECCENTRICITY":0.00015166,"INCLINATION":87.8999,"RA_OF_ASC_NODE":251.7861,"ARG_OF_PERICENTER":97.801,"MEAN_ANOMALY":262.3293,"EPHEMERIS_TYPE":0,"CLASSIFICATION_TYPE":"U","NORAD_CAT_ID":48971,"ELEMENT_SET_NO":999,"REV_AT_EPOCH":22437,"BSTAR":7.540805e-6,"MEAN_MOTION_DOT":1.6e-7,"MEAN_MOTION_DDOT":0},{"OBJECT_NAME":"ONEWEB-0254","OBJECT_ID":"2021-060F","EPOCH":"2026-02-21T13:36:10.981728","MEAN_MOTION":13.16595412,"ECCENTRICITY":0.00016978,"INCLINATION":87.9002,"RA_OF_ASC_NODE":251.7782,"ARG_OF_PERICENTER":104.9301,"MEAN_ANOMALY":255.2018,"EPHEMERIS_TYPE":0,"CLASSIFICATION_TYPE":"U","NORAD_CAT_ID":48972,"ELEMENT_SET_NO":999,"REV_AT_EPOCH":22437,"BSTAR":-0.00015416322,"MEAN_MOTION_DOT":-4.6e-7,"MEAN_MOTION_DDOT":0},{"OBJECT_NAME":"ONEWEB-0255","OBJECT_ID":"2021-060G","EPOCH":"2026-02-21T14:30:55.028448","MEAN_MOTION":13.16595688,"ECCENTRICITY":0.00016047,"INCLINATION":87.8993,"RA_OF_ASC_NODE":251.7808,"ARG_OF_PERICENTER":100.6333,"MEAN_ANOMALY":259.4979,"EPHEMERIS_TYPE":0,"CLASSIFICATION_TYPE":"U","NORAD_CAT_ID":48973,"ELEMENT_SET_NO":999,"REV_AT_EPOCH":22445,"BSTAR":0.00010888931,"MEAN_MOTION_DOT":5.4e-7,"MEAN_MOTION_DDOT":0},{"OBJECT_NAME":"ONEWEB-0256","OBJECT_ID":"2021-060H","EPOCH":"2026-02-21T13:19:05.020608","MEAN_MOTION":13.16592313,"ECCENTRICITY":0.00015033,"INCLINATION":87.8999,"RA_OF_ASC_NODE":251.7977,"ARG_OF_PERICENTER":87.4694,"MEAN_ANOMALY":272.6609,"EPHEMERIS_TYPE":0,"CLASSIFICATION_TYPE":"U","NORAD_CAT_ID":48974,"ELEMENT_SET_NO":999,"REV_AT_EPOCH":22441,"BSTAR":0.00010340146,"MEAN_MOTION_DOT":5.2e-7,"MEAN_MOTION_DDOT":0},{"OBJECT_NAME":"ONEWEB-0257","OBJECT_ID":"2021-060J","EPOCH":"2026-02-21T12:16:23.155104","MEAN_MOTION":13.16595192,"ECCENTRICITY":0.00014683,"INCLINATION":87.8996,"RA_OF_ASC_NODE":251.79,"ARG_OF_PERICENTER":97.3282,"MEAN_ANOMALY":262.8015,"EPHEMERIS_TYPE":0,"CLASSIFICATION_TYPE":"U","NORAD_CAT_ID":48975,"ELEMENT_SET_NO":999,"REV_AT_EPOCH":22436,"BSTAR":-0.0001179271,"MEAN_MOTION_DOT":-3.2e-7,"MEAN_MOTION_DDOT":0},{"OBJECT_NAME":"ONEWEB-0258","OBJECT_ID":"2021-060K","EPOCH":"2026-02-21T12:18:40.525056","MEAN_MOTION":13.16594751,"ECCENTRICITY":0.00016683,"INCLINATION":87.8995,"RA_OF_ASC_NODE":251.8014,"ARG_OF_PERICENTER":92.307,"MEAN_ANOMALY":267.8252,"EPHEMERIS_TYPE":0,"CLASSIFICATION_TYPE":"U","NORAD_CAT_ID":48976,"ELEMENT_SET_NO":999,"REV_AT_EPOCH":22437,"BSTAR":-0.00011726414,"MEAN_MOTION_DOT":-3.2e-7,"MEAN_MOTION_DDOT":0},{"OBJECT_NAME":"ONEWEB-0259","OBJECT_ID":"2021-060L","EPOCH":"2026-02-21T12:09:32.675616","MEAN_MOTION":13.16595659,"ECCENTRICITY":0.00016364,"INCLINATION":87.8997,"RA_OF_ASC_NODE":251.8014,"ARG_OF_PERICENTER":99.6119,"MEAN_ANOMALY":260.5197,"EPHEMERIS_TYPE":0,"CLASSIFICATION_TYPE":"U","NORAD_CAT_ID":48977,"ELEMENT_SET_NO":999,"REV_AT_EPOCH":22440,"BSTAR":-0.00027355652,"MEAN_MOTION_DOT":-9.2e-7,"MEAN_MOTION_DDOT":0},{"OBJECT_NAME":"ONEWEB-0260","OBJECT_ID":"2021-060M","EPOCH":"2026-02-21T11:57:00.289728","MEAN_MOTION":13.16592916,"ECCENTRICITY":0.00012402,"INCLINATION":87.8997,"RA_OF_ASC_NODE":251.8092,"ARG_OF_PERICENTER":83.2377,"MEAN_ANOMALY":276.8895,"EPHEMERIS_TYPE":0,"CLASSIFICATION_TYPE":"U","NORAD_CAT_ID":48978,"ELEMENT_SET_NO":999,"REV_AT_EPOCH":22438,"BSTAR":-0.00013041472,"MEAN_MOTION_DOT":-3.7e-7,"MEAN_MOTION_DDOT":0},{"OBJECT_NAME":"ONEWEB-0261","OBJECT_ID":"2021-060N","EPOCH":"2026-02-21T11:13:41.025216","MEAN_MOTION":13.1659576,"ECCENTRICITY":0.00013647,"INCLINATION":87.8987,"RA_OF_ASC_NODE":251.8168,"ARG_OF_PERICENTER":106.6433,"MEAN_ANOMALY":253.4848,"EPHEMERIS_TYPE":0,"CLASSIFICATION_TYPE":"U","NORAD_CAT_ID":48979,"ELEMENT_SET_NO":999,"REV_AT_EPOCH":22443,"BSTAR":0.00021627882,"MEAN_MOTION_DOT":9.6e-7,"MEAN_MOTION_DDOT":0},{"OBJECT_NAME":"ONEWEB-0262","OBJECT_ID":"2021-060P","EPOCH":"2026-02-21T14:24:04.097952","MEAN_MOTION":13.16594938,"ECCENTRICITY":0.00017964,"INCLINATION":87.8996,"RA_OF_ASC_NODE":251.7705,"ARG_OF_PERICENTER":100.1132,"MEAN_ANOMALY":260.0202,"EPHEMERIS_TYPE":0,"CLASSIFICATION_TYPE":"U","NORAD_CAT_ID":48980,"ELEMENT_SET_NO":999,"REV_AT_EPOCH":22441,"BSTAR":-1.5555665e-5,"MEAN_MOTION_DOT":7.0e-8,"MEAN_MOTION_DDOT":0},{"OBJECT_NAME":"ONEWEB-0263","OBJECT_ID":"2021-060Q","EPOCH":"2026-02-21T13:20:12.929280","MEAN_MOTION":13.16595858,"ECCENTRICITY":0.0001533,"INCLINATION":87.8998,"RA_OF_ASC_NODE":251.7908,"ARG_OF_PERICENTER":109.0153,"MEAN_ANOMALY":251.1144,"EPHEMERIS_TYPE":0,"CLASSIFICATION_TYPE":"U","NORAD_CAT_ID":48981,"ELEMENT_SET_NO":999,"REV_AT_EPOCH":22437,"BSTAR":0.00012173483,"MEAN_MOTION_DOT":5.9e-7,"MEAN_MOTION_DDOT":0},{"OBJECT_NAME":"ONEWEB-0264","OBJECT_ID":"2021-060R","EPOCH":"2026-02-21T12:24:22.217184","MEAN_MOTION":13.16594986,"ECCENTRICITY":0.00013128,"INCLINATION":87.8994,"RA_OF_ASC_NODE":251.8027,"ARG_OF_PERICENTER":95.1126,"MEAN_ANOMALY":265.0155,"EPHEMERIS_TYPE":0,"CLASSIFICATION_TYPE":"U","NORAD_CAT_ID":48982,"ELEMENT_SET_NO":999,"REV_AT_EPOCH":22437,"BSTAR":-3.9774227e-5,"MEAN_MOTION_DOT":-2.0e-8,"MEAN_MOTION_DDOT":0},{"OBJECT_NAME":"ONEWEB-0266","OBJECT_ID":"2021-060T","EPOCH":"2026-02-21T14:44:35.170944","MEAN_MOTION":13.16595715,"ECCENTRICITY":0.00017519,"INCLINATION":87.8999,"RA_OF_ASC_NODE":251.7726,"ARG_OF_PERICENTER":94.6257,"MEAN_ANOMALY":265.5074,"EPHEMERIS_TYPE":0,"CLASSIFICATION_TYPE":"U","NORAD_CAT_ID":48984,"ELEMENT_SET_NO":999,"REV_AT_EPOCH":22437,"BSTAR":0.00028620861,"MEAN_MOTION_DOT":1.22e-6,"MEAN_MOTION_DDOT":0},{"OBJECT_NAME":"ONEWEB-0267","OBJECT_ID":"2021-060U","EPOCH":"2026-02-21T11:21:39.538656","MEAN_MOTION":13.16595786,"ECCENTRICITY":0.0001425,"INCLINATION":87.8999,"RA_OF_ASC_NODE":251.7974,"ARG_OF_PERICENTER":100.5464,"MEAN_ANOMALY":259.5827,"EPHEMERIS_TYPE":0,"CLASSIFICATION_TYPE":"U","NORAD_CAT_ID":48985,"ELEMENT_SET_NO":999,"REV_AT_EPOCH":22436,"BSTAR":0.00021014226,"MEAN_MOTION_DOT":9.3e-7,"MEAN_MOTION_DDOT":0},{"OBJECT_NAME":"ONEWEB-0268","OBJECT_ID":"2021-060V","EPOCH":"2026-02-21T12:25:30.630432","MEAN_MOTION":13.16594594,"ECCENTRICITY":0.000151,"INCLINATION":87.8997,"RA_OF_ASC_NODE":251.7981,"ARG_OF_PERICENTER":92.8771,"MEAN_ANOMALY":267.2533,"EPHEMERIS_TYPE":0,"CLASSIFICATION_TYPE":"U","NORAD_CAT_ID":48986,"ELEMENT_SET_NO":999,"REV_AT_EPOCH":22463,"BSTAR":5.437363e-6,"MEAN_MOTION_DOT":1.5e-7,"MEAN_MOTION_DDOT":0}]
